{
  "links" : {
    "next" : "https://api.nasa.gov/neo/rest/v1/feed?start_date=2016-05-23&end_date=2016-05-23&detailed=true&api_key=t0TVs3DtDT2H8Oy2Zy8m2eVrNsAVKAexjcZXUckd",
    "prev" : "https://api.nasa.gov/neo/rest/v1/feed?start_date=2016-05-21&end_date=2016-05-21&detailed=true&api_key=t0TVs3DtDT2H8Oy2Zy8m2eVrNsAVKAexjcZXUckd",
    "self" : "https://api.nasa.gov/neo/rest/v1/feed?start_date=2016-05-22&end_date=2016-05-22&detailed=true&api_key=t0TVs3DtDT2H8Oy2Zy8m2eVrNsAVKAexjcZXUckd"
  },
  "element_count" : 6,
  "near_earth_objects" : {
    "2016-05-22" : [ {
      "links" : {
        "self" : "https://api.nasa.gov/neo/rest/v1/neo/3605006?api_key=t0TVs3DtDT2H8Oy2Zy8m2eVrNsAVKAexjcZXUckd"
      },
      "neo_reference_id" : "3605006",
      "name" : "(2012 KF25)",
      "nasa_jpl_url" : "http://ssd.jpl.nasa.gov/sbdb.cgi?sstr=3605006",
      "absolute_magnitude_h" : 25.3,
      "estimated_diameter" : {
        "kilometers" : {
          "estimated_diameter_min" : 0.0231502122,
          "estimated_diameter_max" : 0.0517654482
        },
        "meters" : {
          "estimated_diameter_min" : 23.150212221,
          "estimated_diameter_max" : 51.7654482198
        },
        "miles" : {
          "estimated_diameter_min" : 0.0143848705,
          "estimated_diameter_max" : 0.0321655483
        },
        "feet" : {
          "estimated_diameter_min" : 75.9521422633,
          "estimated_diameter_max" : 169.8341531374
        }
      },
      "is_potentially_hazardous_asteroid" : false,
      "close_approach_data" : [ {
        "close_approach_date" : "2016-05-22",
        "epoch_date_close_approach" : 1463900400000,
        "relative_velocity" : {
          "kilometers_per_second" : "15.2060341598",
          "kilometers_per_hour" : "54741.7229753804",
          "miles_per_hour" : "34014.377812119"
        },
        "miss_distance" : {
          "astronomical" : "0.396401336",
          "lunar" : "154.2001190186",
          "kilometers" : "59300796",
          "miles" : "36847808"
        },
        "orbiting_body" : "Earth"
      } ],
      "orbital_data" : {
        "orbit_id" : "7",
        "orbit_determination_date" : "2017-04-06 08:49:41",
        "orbit_uncertainty" : "6",
        "minimum_orbit_intersection" : ".0199428",
        "jupiter_tisserand_invariant" : "6.101",
        "epoch_osculation" : "2458000.5",
        "eccentricity" : ".04978370662596403",
        "semi_major_axis" : ".9876903830375856",
        "inclination" : "16.94815881102105",
        "ascending_node_longitude" : "64.87534064153274",
        "orbital_period" : "358.5334371483454",
        "perihelion_distance" : ".9385194947711565",
        "perihelion_argument" : "336.4711963624645",
        "aphelion_distance" : "1.036861271304015",
        "perihelion_time" : "2458022.195511219581",
        "mean_anomaly" : "338.2157443914562",
        "mean_motion" : "1.004090449312954",
        "equinox" : "J2000"
      }
    }, {
      "links" : {
        "self" : "https://api.nasa.gov/neo/rest/v1/neo/3702966?api_key=t0TVs3DtDT2H8Oy2Zy8m2eVrNsAVKAexjcZXUckd"
      },
      "neo_reference_id" : "3702966",
      "name" : "(2014 YT9)",
      "nasa_jpl_url" : "http://ssd.jpl.nasa.gov/sbdb.cgi?sstr=3702966",
      "absolute_magnitude_h" : 20.4,
      "estimated_diameter" : {
        "kilometers" : {
          "estimated_diameter_min" : 0.2210828104,
          "estimated_diameter_max" : 0.4943561926
        },
        "meters" : {
          "estimated_diameter_min" : 221.0828103591,
          "estimated_diameter_max" : 494.3561926196
        },
        "miles" : {
          "estimated_diameter_min" : 0.137374447,
          "estimated_diameter_max" : 0.3071786018
        },
        "feet" : {
          "estimated_diameter_min" : 725.3373275385,
          "estimated_diameter_max" : 1621.9035709942
        }
      },
      "is_potentially_hazardous_asteroid" : false,
      "close_approach_data" : [ {
        "close_approach_date" : "2016-05-22",
        "epoch_date_close_approach" : 1463900400000,
        "relative_velocity" : {
          "kilometers_per_second" : "29.2412245413",
          "kilometers_per_hour" : "105268.4083487452",
          "miles_per_hour" : "65409.6951764745"
        },
        "miss_distance" : {
          "astronomical" : "0.3889881137",
          "lunar" : "151.3163757324",
          "kilometers" : "58191792",
          "miles" : "36158704"
        },
        "orbiting_body" : "Earth"
      } ],
      "orbital_data" : {
        "orbit_id" : "18",
        "orbit_determination_date" : "2017-04-06 08:36:45",
        "orbit_uncertainty" : "2",
        "minimum_orbit_intersection" : ".0641822",
        "jupiter_tisserand_invariant" : "4.388",
        "epoch_osculation" : "2458000.5",
        "eccentricity" : ".5723815765306388",
        "semi_major_axis" : "1.473075217252151",
        "inclination" : "11.35066698484454",
        "ascending_node_longitude" : "241.5559196330063",
        "orbital_period" : "653.0340274165122",
        "perihelion_distance" : ".6299141020531517",
        "perihelion_argument" : "111.8949166134876",
        "aphelion_distance" : "2.316236332451151",
        "perihelion_time" : "2458234.514181277710",
        "mean_anomaly" : "230.9943100618196",
        "mean_motion" : ".551272958048154",
        "equinox" : "J2000"
      }
    }, {
      "links" : {
        "self" : "https://api.nasa.gov/neo/rest/v1/neo/3719730?api_key=t0TVs3DtDT2H8Oy2Zy8m2eVrNsAVKAexjcZXUckd"
      },
      "neo_reference_id" : "3719730",
      "name" : "(2015 KB57)",
      "nasa_jpl_url" : "http://ssd.jpl.nasa.gov/sbdb.cgi?sstr=3719730",
      "absolute_magnitude_h" : 22.3,
      "estimated_diameter" : {
        "kilometers" : {
          "estimated_diameter_min" : 0.0921626549,
          "estimated_diameter_max" : 0.2060819612
        },
        "meters" : {
          "estimated_diameter_min" : 92.1626548503,
          "estimated_diameter_max" : 206.0819612321
        },
        "miles" : {
          "estimated_diameter_min" : 0.057267201,
          "estimated_diameter_max" : 0.1280533543
        },
        "feet" : {
          "estimated_diameter_min" : 302.370924539,
          "estimated_diameter_max" : 676.1219416887
        }
      },
      "is_potentially_hazardous_asteroid" : false,
      "close_approach_data" : [ {
        "close_approach_date" : "2016-05-22",
        "epoch_date_close_approach" : 1463900400000,
        "relative_velocity" : {
          "kilometers_per_second" : "17.3314582484",
          "kilometers_per_hour" : "62393.2496942508",
          "miles_per_hour" : "38768.7389558527"
        },
        "miss_distance" : {
          "astronomical" : "0.4480311208",
          "lunar" : "174.2841033936",
          "kilometers" : "67024504",
          "miles" : "41647096"
        },
        "orbiting_body" : "Earth"
      } ],
      "orbital_data" : {
        "orbit_id" : "9",
        "orbit_determination_date" : "2017-04-06 08:33:35",
        "orbit_uncertainty" : "6",
        "minimum_orbit_intersection" : ".141842",
        "jupiter_tisserand_invariant" : "6.096",
        "epoch_osculation" : "2458000.5",
        "eccentricity" : ".607394797669792",
        "semi_major_axis" : ".9446451986124497",
        "inclination" : "29.68886517977485",
        "ascending_node_longitude" : "239.6392815137085",
        "orbital_period" : "335.3524697637476",
        "perihelion_distance" : ".3708726193315003",
        "perihelion_argument" : "208.7944837721669",
        "aphelion_distance" : "1.518417777893399",
        "perihelion_time" : "2458085.186427416808",
        "mean_anomaly" : "269.0893414575752",
        "mean_motion" : "1.073497386954139",
        "equinox" : "J2000"
      }
    } ]
  }
}